TRANSPORTER-12 OBJECT BA
1 62657U 25009BA  26068.70118713  .00011330  00000+0  42733-3 0  9991
2 62657  97.3985 151.1390 0000403 234.6623 125.4579 15.27214003 63739
STARLINK-33695          
1 63478U 25070U   26068.51994702  .00026942  00000+0  98450-3 0  9992
2 63478  42.9986 257.0042 0001074 314.4333  45.6430 15.27596232 52990
